ONEWEB-0063             
1 45448U 20020AA  24106.22157223 -.00000377  00000+0 -11004-2 0  9992
2 45448  87.9023 178.7721 0002228  92.0757 268.0626 13.11414360198768
ONEWEB-0019             
1 45449U 20020AB  24106.57709380  .00000502  00000+0  13793-2 0  9993
2 45449  87.9028 178.7021 0002179 102.5852 257.5520 13.11414686198650
ONEWEB-0094             
1 45450U 20020AC  24106.58328358  .00000013  00000+0  60537-6 0  9997
2 45450  87.9217 163.5611 0001886  95.7994 264.3352 13.17647594201930
ONEWEB-0087             
1 45451U 20020AD  24106.22805675 -.00000528  00000+0 -15266-2 0  9999
2 45451  87.9016 178.7452 0001766  95.5665 264.5664 13.11417847198651
ONEWEB-0082             
1 45452U 20020AE  24106.61116229 -.00000739  00000+0 -21207-2 0  9999
2 45452  87.9021 178.6716 0002030 103.3661 256.7694 13.11416055198790
ONEWEB-0050             
1 45453U 20020AF  24106.31105067 -.00007331  00000+0 -78603-3 0  9993
2 45453  88.0041  44.0513 0003388  26.2634 333.8765 14.88902060222263
ONEWEB-0034             
1 45454U 20020AG  24106.24916908  .00000126  00000+0  31978-3 0  9997
2 45454  87.9025 178.7615 0001952  98.4850 261.6499 13.11419927198666
ONEWEB-0060             
1 45455U 20020AH  24106.56246906  .00000404  00000+0  11032-2 0  9994
2 45455  87.9028 178.6973 0001926  93.9904 266.1444 13.11420216198660
